{
  "type": "FeatureCollection",
  "features": [
    {
      "type": "Feature",
      "properties": {
        "norad_id": 42988,
        "name": "SKYSAT-C10",
        "group": "resource",
        "lat": 66.01286700966185,
        "lon": -52.890415422294936,
        "alt_km": 459.2553806028045,
        "timestamp": "2025-12-05T05:43:14.771940+00:00",
        "meta_object_name": "SKYSAT-C10",
        "meta_object_id": "2017-068B",
        "meta_epoch": "2025-12-04T07:16:54.383808",
        "meta_mean_motion": 15.31835554,
        "meta_eccentricity": 0.0006971,
        "meta_inclination": 97.4228,
        "meta_ra_of_asc_node": 109.1352,
        "meta_arg_of_pericenter": 134.0692,
        "meta_mean_anomaly": 226.1124,
        "meta_ephemeris_type": 0,
        "meta_classification_type": "U",
        "meta_norad_cat_id": 42988,
        "meta_element_set_no": 999,
        "meta_rev_at_epoch": 45250,
        "meta_bstar": 0.00074085,
        "meta_mean_motion_dot": 0.00022753,
        "meta_mean_motion_ddot": 0,
        "tle_line1": "1 42988U 17068B   25338.30340722  .00022753  00000+0  74085-3 0  9990",
        "tle_line2": "2 42988  97.4228 109.1352 0006971 134.0692 226.1124 15.31835554452508"
      },
      "geometry": {
        "type": "Point",
        "coordinates": [
          -52.890415422294936,
          66.01286700966185
        ]
      }
    },
    {
      "type": "Feature",
      "properties": {
        "norad_id": 42989,
        "name": "SKYSAT-C9",
        "group": "resource",
        "lat": -33.24634903982142,
        "lon": -75.46493620010986,
        "alt_km": 466.3498340121805,
        "timestamp": "2025-12-05T05:43:14.771950+00:00",
        "meta_object_name": "SKYSAT-C9",
        "meta_object_id": "2017-068C",
        "meta_epoch": "2025-12-04T08:27:57.708000",
        "meta_mean_motion": 15.35718179,
        "meta_eccentricity": 0.0010654,
        "meta_inclination": 97.4185,
        "meta_ra_of_asc_node": 108.543,
        "meta_arg_of_pericenter": 115.0051,
        "meta_mean_anomaly": 245.23,
        "meta_ephemeris_type": 0,
        "meta_classification_type": "U",
        "meta_norad_cat_id": 42989,
        "meta_element_set_no": 999,
        "meta_rev_at_epoch": 45279,
        "meta_bstar": 0.00078251,
        "meta_mean_motion_dot": 0.00027214,
        "meta_mean_motion_ddot": 0,
        "tle_line1": "1 42989U 17068C   25338.35275125  .00027214  00000+0  78251-3 0  9996",
        "tle_line2": "2 42989  97.4185 108.5430 0010654 115.0051 245.2300 15.35718179452798"
      },
      "geometry": {
        "type": "Point",
        "coordinates": [
          -75.46493620010986,
          -33.24634903982142
        ]
      }
    },
    {
      "type": "Feature",
      "properties": {
        "norad_id": 42990,
        "name": "SKYSAT-C8",
        "group": "resource",
        "lat": -82.29851416533738,
        "lon": -145.53081274489088,
        "alt_km": 475.62623308573075,
        "timestamp": "2025-12-05T05:43:14.771960+00:00",
        "meta_object_name": "SKYSAT-C8",
        "meta_object_id": "2017-068D",
        "meta_epoch": "2025-12-04T16:01:10.335072",
        "meta_mean_motion": 15.32647,
        "meta_eccentricity": 0.0002071,
        "meta_inclination": 97.4278,
        "meta_ra_of_asc_node": 108.6347,
        "meta_arg_of_pericenter": 17.0554,
        "meta_mean_anomaly": 343.0757,
        "meta_ephemeris_type": 0,
        "meta_classification_type": "U",
        "meta_norad_cat_id": 42990,
        "meta_element_set_no": 999,
        "meta_rev_at_epoch": 45247,
        "meta_bstar": 0.00070665,
        "meta_mean_motion_dot": 0.0002224,
        "meta_mean_motion_ddot": 0,
        "tle_line1": "1 42990U 17068D   25338.66748073  .00022240  00000+0  70665-3 0  9994",
        "tle_line2": "2 42990  97.4278 108.6347 0002071  17.0554 343.0757 15.32647000452473"
      },
      "geometry": {
        "type": "Point",
        "coordinates": [
          -145.53081274489088,
          -82.29851416533738
        ]
      }
    },
    {
      "type": "Feature",
      "properties": {
        "norad_id": 42991,
        "name": "SKYSAT-C7",
        "group": "resource",
        "lat": 40.01074669812895,
        "lon": -63.45731291630605,
        "alt_km": 463.80149311500827,
        "timestamp": "2025-12-05T05:43:14.771970+00:00",
        "meta_object_name": "SKYSAT-C7",
        "meta_object_id": "2017-068E",
        "meta_epoch": "2025-12-04T15:00:25.075008",
        "meta_mean_motion": 15.32054452,
        "meta_eccentricity": 0.0007895,
        "meta_inclination": 97.4285,
        "meta_ra_of_asc_node": 109.64,
        "meta_arg_of_pericenter": 82.4418,
        "meta_mean_anomaly": 277.772,
        "meta_ephemeris_type": 0,
        "meta_classification_type": "U",
        "meta_norad_cat_id": 42991,
        "meta_element_set_no": 999,
        "meta_rev_at_epoch": 45253,
        "meta_bstar": 0.00072752,
        "meta_mean_motion_dot": 0.00022499,
        "meta_mean_motion_ddot": 0,
        "tle_line1": "1 42991U 17068E   25338.62529022  .00022499  00000+0  72752-3 0  9997",
        "tle_line2": "2 42991  97.4285 109.6400 0007895  82.4418 277.7720 15.32054452452530"
      },
      "geometry": {
        "type": "Point",
        "coordinates": [
          -63.45731291630605,
          40.01074669812895
        ]
      }
    },
    {
      "type": "Feature",
      "properties": {
        "norad_id": 42992,
        "name": "SKYSAT-C6",
        "group": "resource",
        "lat": -78.54716330549977,
        "lon": 150.81398123372665,
        "alt_km": 482.9470019032042,
        "timestamp": "2025-12-05T05:43:14.771980+00:00",
        "meta_object_name": "SKYSAT-C6",
        "meta_object_id": "2017-068F",
        "meta_epoch": "2025-12-04T14:23:30.751872",
        "meta_mean_motion": 15.31229154,
        "meta_eccentricity": 0.0005164,
        "meta_inclination": 97.4319,
        "meta_ra_of_asc_node": 110.0595,
        "meta_arg_of_pericenter": 105.6508,
        "meta_mean_anomaly": 254.5303,
        "meta_ephemeris_type": 0,
        "meta_classification_type": "U",
        "meta_norad_cat_id": 42992,
        "meta_element_set_no": 999,
        "meta_rev_at_epoch": 45251,
        "meta_bstar": 0.00072089,
        "meta_mean_motion_dot": 0.00021714,
        "meta_mean_motion_ddot": 0,
        "tle_line1": "1 42992U 17068F   25338.59966148  .00021714  00000+0  72089-3 0  9990",
        "tle_line2": "2 42992  97.4319 110.0595 0005164 105.6508 254.5303 15.31229154452515"
      },
      "geometry": {
        "type": "Point",
        "coordinates": [
          150.81398123372665,
          -78.54716330549977
        ]
      }
    },
    {
      "type": "Feature",
      "properties": {
        "norad_id": 43111,
        "name": "CARTOSAT-2F",
        "group": "resource",
        "lat": -7.212569208514176,
        "lon": 37.94418966725962,
        "alt_km": 512.4923047206348,
        "timestamp": "2025-12-05T05:43:14.771990+00:00",
        "meta_object_name": "CARTOSAT-2F",
        "meta_object_id": "2018-004A",
        "meta_epoch": "2025-12-04T17:06:22.006080",
        "meta_mean_motion": 15.19154935,
        "meta_eccentricity": 3.73e-05,
        "meta_inclination": 97.4333,
        "meta_ra_of_asc_node": 36.4803,
        "meta_arg_of_pericenter": 127.8571,
        "meta_mean_anomaly": 232.2697,
        "meta_ephemeris_type": 0,
        "meta_classification_type": "U",
        "meta_norad_cat_id": 43111,
        "meta_element_set_no": 999,
        "meta_rev_at_epoch": 43780,
        "meta_bstar": 0.00083912,
        "meta_mean_motion_dot": 0.00017598,
        "meta_mean_motion_ddot": 0,
        "tle_line1": "1 43111U 18004A   25338.71275470  .00017598  00000+0  83912-3 0  9992",
        "tle_line2": "2 43111  97.4333  36.4803 0000373 127.8571 232.2697 15.19154935437805"
      },
      "geometry": {
        "type": "Point",
        "coordinates": [
          37.94418966725962,
          -7.212569208514176
        ]
      }
    },
    {
      "type": "Feature",
      "properties": {
        "norad_id": 43259,
        "name": "GAOFEN-1 02",
        "group": "resource",
        "lat": -11.7725951658675,
        "lon": -144.6725583460632,
        "alt_km": 644.427789967408,
        "timestamp": "2025-12-05T05:43:14.772000+00:00",
        "meta_object_name": "GAOFEN-1 02",
        "meta_object_id": "2018-031A",
        "meta_epoch": "2025-12-04T17:28:09.422112",
        "meta_mean_motion": 14.76454976,
        "meta_eccentricity": 0.000133,
        "meta_inclination": 98.0818,
        "meta_ra_of_asc_node": 36.5137,
        "meta_arg_of_pericenter": 250.3343,
        "meta_mean_anomaly": 109.7723,
        "meta_ephemeris_type": 0,
        "meta_classification_type": "U",
        "meta_norad_cat_id": 43259,
        "meta_element_set_no": 999,
        "meta_rev_at_epoch": 41400,
        "meta_bstar": 0.00028021,
        "meta_mean_motion_dot": 1.898e-05,
        "meta_mean_motion_ddot": 0,
        "tle_line1": "1 43259U 18031A   25338.72788683  .00001898  00000+0  28021-3 0  9997",
        "tle_line2": "2 43259  98.0818  36.5137 0001330 250.3343 109.7723 14.76454976414002"
      },
      "geometry": {
        "type": "Point",
        "coordinates": [
          -144.6725583460632,
          -11.7725951658675
        ]
      }
    }
  ]
}